CCSDS_OMM_VERS = 2.0
CREATION_DATE  = 
ORIGINATOR     = 

OBJECT_NAME    = STARLINK-35686
OBJECT_ID      = 2025-257AD
CENTER_NAME    = EARTH
REF_FRAME      = TEME
TIME_SYSTEM    = UTC
MEAN_ELEMENT_THEORY = SGP/SGP4

EPOCH          = 2025-11-20T17:28:45.551136
MEAN_MOTION    = 15.79834317
ECCENTRICITY   = .00031478
INCLINATION    = 53.1524
RA_OF_ASC_NODE = 10.0737
ARG_OF_PERICENTER = 23.6007
MEAN_ANOMALY   = 336.5159

EPHEMERIS_TYPE = 0
CLASSIFICATION_TYPE = U
NORAD_CAT_ID   = 66407
ELEMENT_SET_NO = 999
REV_AT_EPOCH   = 295
BSTAR          = -.42477633E-2
MEAN_MOTION_DOT = -.735763E-2
MEAN_MOTION_DDOT = 0

CCSDS_OMM_VERS = 2.0
CREATION_DATE  = 
ORIGINATOR     = 

OBJECT_NAME    = STARLINK-35679
OBJECT_ID      = 2025-257AE
CENTER_NAME    = EARTH
REF_FRAME      = TEME
TIME_SYSTEM    = UTC
MEAN_ELEMENT_THEORY = SGP/SGP4

EPOCH          = 2025-11-20T17:28:08.558112
MEAN_MOTION    = 15.79777049
ECCENTRICITY   = .0001202
INCLINATION    = 53.1526
RA_OF_ASC_NODE = 10.0715
ARG_OF_PERICENTER = 35.2525
MEAN_ANOMALY   = 324.8576

EPHEMERIS_TYPE = 0
CLASSIFICATION_TYPE = U
NORAD_CAT_ID   = 66408
ELEMENT_SET_NO = 999
REV_AT_EPOCH   = 295
BSTAR          = -.40683E-2
MEAN_MOTION_DOT = -.704788E-2
MEAN_MOTION_DDOT = 0

CCSDS_OMM_VERS = 2.0
CREATION_DATE  = 
ORIGINATOR     = 

OBJECT_NAME    = CHUTIAN-2 A
OBJECT_ID      = 2025-256A
CENTER_NAME    = EARTH
REF_FRAME      = TEME
TIME_SYSTEM    = UTC
MEAN_ELEMENT_THEORY = SGP/SGP4

EPOCH          = 2025-11-21T04:40:12.961344
MEAN_MOTION    = 14.49980008
ECCENTRICITY   = .0012547
INCLINATION    = 98.2791
RA_OF_ASC_NODE = 30.3357
ARG_OF_PERICENTER = 245.6048
MEAN_ANOMALY   = 114.3838

EPHEMERIS_TYPE = 0
CLASSIFICATION_TYPE = U
NORAD_CAT_ID   = 66409
ELEMENT_SET_NO = 999
REV_AT_EPOCH   = 175
BSTAR          = .25679E-4
MEAN_MOTION_DOT = .55E-6
MEAN_MOTION_DDOT = 0

CCSDS_OMM_VERS = 2.0
CREATION_DATE  = 
ORIGINATOR     = 

OBJECT_NAME    = CHUTIAN-2 B
OBJECT_ID      = 2025-256B
CENTER_NAME    = EARTH
REF_FRAME      = TEME
TIME_SYSTEM    = UTC
MEAN_ELEMENT_THEORY = SGP/SGP4

EPOCH          = 2025-11-21T04:36:37.298304
MEAN_MOTION    = 14.50981791
ECCENTRICITY   = .0012769
INCLINATION    = 98.2819
RA_OF_ASC_NODE = 30.3428
ARG_OF_PERICENTER = 250.2871
MEAN_ANOMALY   = 109.6946

EPHEMERIS_TYPE = 0
CLASSIFICATION_TYPE = U
NORAD_CAT_ID   = 66410
ELEMENT_SET_NO = 999
REV_AT_EPOCH   = 175
BSTAR          = .1084E-3
MEAN_MOTION_DOT = .384E-5
MEAN_MOTION_DDOT = 0

CCSDS_OMM_VERS = 2.0
CREATION_DATE  = 
ORIGINATOR     = 

OBJECT_NAME    = ZK-1A R/B
OBJECT_ID      = 2025-256C
CENTER_NAME    = EARTH
REF_FRAME      = TEME
TIME_SYSTEM    = UTC
MEAN_ELEMENT_THEORY = SGP/SGP4

EPOCH          = 2025-11-20T17:22:35.449824
MEAN_MOTION    = 15.01236100
ECCENTRICITY   = .02323532
INCLINATION    = 98.3243
RA_OF_ASC_NODE = 30.9055
ARG_OF_PERICENTER = 318.4537
MEAN_ANOMALY   = 39.9225

EPHEMERIS_TYPE = 0
CLASSIFICATION_TYPE = U
NORAD_CAT_ID   = 66411
ELEMENT_SET_NO = 999
REV_AT_EPOCH   = 174
BSTAR          = .48987823E-3
MEAN_MOTION_DOT = .11214E-3
MEAN_MOTION_DDOT = 0

CCSDS_OMM_VERS = 2.0
CREATION_DATE  = 
ORIGINATOR     = 

OBJECT_NAME    = HULIANWANG DIGUI 13A
OBJECT_ID      = 2025-258A
CENTER_NAME    = EARTH
REF_FRAME      = TEME
TIME_SYSTEM    = UTC
MEAN_ELEMENT_THEORY = SGP/SGP4

EPOCH          = 2025-11-21T00:29:10.578048
MEAN_MOTION    = 14.25710932
ECCENTRICITY   = .00138815
INCLINATION    = 50.0051
RA_OF_ASC_NODE = 353.4115
ARG_OF_PERICENTER = 282.9126
MEAN_ANOMALY   = 77.0237

EPHEMERIS_TYPE = 0
CLASSIFICATION_TYPE = U
NORAD_CAT_ID   = 66412
ELEMENT_SET_NO = 999
REV_AT_EPOCH   = 156
BSTAR          = -.17040294E-4
MEAN_MOTION_DOT = -.201E-5
MEAN_MOTION_DDOT = 0

CCSDS_OMM_VERS = 2.0
CREATION_DATE  = 
ORIGINATOR     = 

OBJECT_NAME    = HULIANWANG DIGUI 13B
OBJECT_ID      = 2025-258B
CENTER_NAME    = EARTH
REF_FRAME      = TEME
TIME_SYSTEM    = UTC
MEAN_ELEMENT_THEORY = SGP/SGP4

EPOCH          = 2025-11-21T00:33:41.303808
MEAN_MOTION    = 14.23475986
ECCENTRICITY   = .00134362
INCLINATION    = 50.0044
RA_OF_ASC_NODE = 353.4201
ARG_OF_PERICENTER = 281.8628
MEAN_ANOMALY   = 78.0778

EPHEMERIS_TYPE = 0
CLASSIFICATION_TYPE = U
NORAD_CAT_ID   = 66413
ELEMENT_SET_NO = 999
REV_AT_EPOCH   = 156
BSTAR          = .1069691E-5
MEAN_MOTION_DOT = -.157E-5
MEAN_MOTION_DDOT = 0

CCSDS_OMM_VERS = 2.0
CREATION_DATE  = 
ORIGINATOR     = 

OBJECT_NAME    = HULIANWANG DIGUI 13C
OBJECT_ID      = 2025-258C
CENTER_NAME    = EARTH
REF_FRAME      = TEME
TIME_SYSTEM    = UTC
MEAN_ELEMENT_THEORY = SGP/SGP4

EPOCH          = 2025-11-19T19:52:21.139680
MEAN_MOTION    = 14.25515031
ECCENTRICITY   = .00133918
INCLINATION    = 50.0085
RA_OF_ASC_NODE = 358.4424
ARG_OF_PERICENTER = 277.0637
MEAN_ANOMALY   = 82.8754

EPHEMERIS_TYPE = 0
CLASSIFICATION_TYPE = U
NORAD_CAT_ID   = 66414
ELEMENT_SET_NO = 999
REV_AT_EPOCH   = 139
BSTAR          = .28683165E-4
MEAN_MOTION_DOT = -.92E-6
MEAN_MOTION_DDOT = 0

CCSDS_OMM_VERS = 2.0
CREATION_DATE  = 
ORIGINATOR     = 

OBJECT_NAME    = HULIANWANG DIGUI 13D
OBJECT_ID      = 2025-258D
CENTER_NAME    = EARTH
REF_FRAME      = TEME
TIME_SYSTEM    = UTC
MEAN_ELEMENT_THEORY = SGP/SGP4

EPOCH          = 2025-11-20T22:46:10.983936
MEAN_MOTION    = 14.25899495
ECCENTRICITY   = .00130726
INCLINATION    = 50.0049
RA_OF_ASC_NODE = 353.7004
ARG_OF_PERICENTER = 287.8381
MEAN_ANOMALY   = 72.1107

EPHEMERIS_TYPE = 0
CLASSIFICATION_TYPE = U
NORAD_CAT_ID   = 66415
ELEMENT_SET_NO = 999
REV_AT_EPOCH   = 155
BSTAR          = .674693E-6
MEAN_MOTION_DOT = -.159E-5
MEAN_MOTION_DDOT = 0

CCSDS_OMM_VERS = 2.0
CREATION_DATE  = 
ORIGINATOR     = 

OBJECT_NAME    = HULIANWANG DIGUI 13E
OBJECT_ID      = 2025-258E
CENTER_NAME    = EARTH
REF_FRAME      = TEME
TIME_SYSTEM    = UTC
MEAN_ELEMENT_THEORY = SGP/SGP4

EPOCH          = 2025-11-19T23:12:05.374368
MEAN_MOTION    = 14.25961121
ECCENTRICITY   = .00123741
INCLINATION    = 50.0058
RA_OF_ASC_NODE = 357.8428
ARG_OF_PERICENTER = 282.4671
MEAN_ANOMALY   = 77.4858

EPHEMERIS_TYPE = 0
CLASSIFICATION_TYPE = U
NORAD_CAT_ID   = 66416
ELEMENT_SET_NO = 999
REV_AT_EPOCH   = 141
BSTAR          = .19441609E-4
MEAN_MOTION_DOT = -.114E-5
MEAN_MOTION_DDOT = 0

CCSDS_OMM_VERS = 2.0
CREATION_DATE  = 
ORIGINATOR     = 

OBJECT_NAME    = HULIANWANG DIGUI 13F
OBJECT_ID      = 2025-258F
CENTER_NAME    = EARTH
REF_FRAME      = TEME
TIME_SYSTEM    = UTC
MEAN_ELEMENT_THEORY = SGP/SGP4

EPOCH          = 2025-11-19T19:49:44.262336
MEAN_MOTION    = 14.26074605
ECCENTRICITY   = .00123821
INCLINATION    = 50.0021
RA_OF_ASC_NODE = 358.4189
ARG_OF_PERICENTER = 283.8909
MEAN_ANOMALY   = 76.0628

EPHEMERIS_TYPE = 0
CLASSIFICATION_TYPE = U
NORAD_CAT_ID   = 66417
ELEMENT_SET_NO = 999
REV_AT_EPOCH   = 139
BSTAR          = .23719985E-4
MEAN_MOTION_DOT = -.103E-5
MEAN_MOTION_DDOT = 0

CCSDS_OMM_VERS = 2.0
CREATION_DATE  = 
ORIGINATOR     = 

OBJECT_NAME    = HULIANWANG DIGUI 13G
OBJECT_ID      = 2025-258G
CENTER_NAME    = EARTH
REF_FRAME      = TEME
TIME_SYSTEM    = UTC
MEAN_ELEMENT_THEORY = SGP/SGP4

EPOCH          = 2025-11-21T00:25:04.636992
MEAN_MOTION    = 14.26083363
ECCENTRICITY   = .00120731
INCLINATION    = 50.0018
RA_OF_ASC_NODE = 353.3846
ARG_OF_PERICENTER = 282.0842
MEAN_ANOMALY   = 77.8719

EPHEMERIS_TYPE = 0
CLASSIFICATION_TYPE = U
NORAD_CAT_ID   = 66418
ELEMENT_SET_NO = 999
REV_AT_EPOCH   = 156
BSTAR          = -.2522383E-5
MEAN_MOTION_DOT = -.166E-5
MEAN_MOTION_DDOT = 0

CCSDS_OMM_VERS = 2.0
CREATION_DATE  = 
ORIGINATOR     = 

OBJECT_NAME    = HULIANWANG DIGUI 13H
OBJECT_ID      = 2025-258H
CENTER_NAME    = EARTH
REF_FRAME      = TEME
TIME_SYSTEM    = UTC
MEAN_ELEMENT_THEORY = SGP/SGP4

EPOCH          = 2025-11-21T00:23:22.715232
MEAN_MOTION    = 14.26239559
ECCENTRICITY   = .00114895
INCLINATION    = 50.0014
RA_OF_ASC_NODE = 353.3763
ARG_OF_PERICENTER = 284.9430
MEAN_ANOMALY   = 75.0212

EPHEMERIS_TYPE = 0
CLASSIFICATION_TYPE = U
NORAD_CAT_ID   = 66419
ELEMENT_SET_NO = 999
REV_AT_EPOCH   = 156
BSTAR          = -.353826E-5
MEAN_MOTION_DOT = -.169E-5
MEAN_MOTION_DDOT = 0

CCSDS_OMM_VERS = 2.0
CREATION_DATE  = 
ORIGINATOR     = 

OBJECT_NAME    = HULIANWANG DIGUI 13J
OBJECT_ID      = 2025-258J
CENTER_NAME    = EARTH
REF_FRAME      = TEME
TIME_SYSTEM    = UTC
MEAN_ELEMENT_THEORY = SGP/SGP4

EPOCH          = 2025-11-21T00:22:11.119008
MEAN_MOTION    = 14.26345585
ECCENTRICITY   = .00109917
INCLINATION    = 50.0039
RA_OF_ASC_NODE = 353.3787
ARG_OF_PERICENTER = 289.0184
MEAN_ANOMALY   = 70.9539

EPHEMERIS_TYPE = 0
CLASSIFICATION_TYPE = U
NORAD_CAT_ID   = 66420
ELEMENT_SET_NO = 999
REV_AT_EPOCH   = 155
BSTAR          = -.3682671E-5
MEAN_MOTION_DOT = -.169E-5
MEAN_MOTION_DDOT = 0

CCSDS_OMM_VERS = 2.0
CREATION_DATE  = 
ORIGINATOR     = 

OBJECT_NAME    = CZ-12 R/B
OBJECT_ID      = 2025-258K
CENTER_NAME    = EARTH
REF_FRAME      = TEME
TIME_SYSTEM    = UTC
MEAN_ELEMENT_THEORY = SGP/SGP4

EPOCH          = 2025-11-21T00:48:52.180992
MEAN_MOTION    = 14.42310820
ECCENTRICITY   = .00646319
INCLINATION    = 49.9958
RA_OF_ASC_NODE = 352.1358
ARG_OF_PERICENTER = 171.4236
MEAN_ANOMALY   = 188.7804

EPHEMERIS_TYPE = 0
CLASSIFICATION_TYPE = U
NORAD_CAT_ID   = 66421
ELEMENT_SET_NO = 999
REV_AT_EPOCH   = 158
BSTAR          = .24991521E-4
MEAN_MOTION_DOT = -.86E-6
MEAN_MOTION_DDOT = 0

